GLOBALSTAR M084         
1 38040U 11080A   25139.74773619 -.00000095  00000+0  48621-4 0  9998
2 38040  51.9980 135.0530 0000395 358.0400 173.1233 12.62266178619358
GLOBALSTAR M080         
1 38041U 11080B   25139.71904284 -.00000094  00000+0  51926-4 0  9991
2 38041  52.0030 136.7219 0000582  89.8238  80.9102 12.62263031619338
GLOBALSTAR M082         
1 38042U 11080C   25139.57607455 -.00000098  00000+0  29823-4 0  9991
2 38042  52.0067  92.6135 0000687  86.9395  84.1006 12.62266165619884
GLOBALSTAR M092         
1 38043U 11080D   25139.86636443 -.00000107  00000+0 -15989-4 0  9993
2 38043  52.0061 182.1077 0000194 115.9343  55.0498 12.62264430618589
GLOBALSTAR M090         
1 38044U 11080E   25139.60255914 -.00000101  00000+0  16356-4 0  9998
2 38044  51.9879  86.3768 0000464  74.9192  96.9126 12.62270171620004
GLOBALSTAR M086         
1 38045U 11080F   25139.62870868 -.00000085  00000+0  10593-3 0  9999
2 38045  51.9892  86.8458 0000556 273.2714 257.8939 12.62271022619955
GLOBALSTAR M097         
1 39072U 13005A   25139.30088972 -.00000094  00000+0  53270-4 0  9991
2 39072  52.0068   2.3640 0000673 100.0588 260.0354 12.62272032567169
GLOBALSTAR M093         
1 39073U 13005B   25139.74949608 -.00000093  00000+0  57367-4 0  9992
2 39073  51.9831 354.3462 0000759 102.3652 257.7300 12.62264641567295
