<?xml version="1.0" encoding="UTF-8"?>
<ndm xmlns:xsi="http://www.w3.org/2001/XMLSchema-instance" xsi:noNamespaceSchemaLocation="https://sanaregistry.org/r/ndmxml_unqualified/ndmxml-2.0.0-master-2.0.xsd">
<omm id="CCSDS_OMM_VERS" version="2.0">
<header><CREATION_DATE/><ORIGINATOR/></header><body><segment><metadata><OBJECT_NAME>GLOBALSTAR M084</OBJECT_NAME><OBJECT_ID>2011-080A</OBJECT_ID><CENTER_NAME>EARTH</CENTER_NAME><REF_FRAME>TEME</REF_FRAME><TIME_SYSTEM>UTC</TIME_SYSTEM><MEAN_ELEMENT_THEORY>SGP4</MEAN_ELEMENT_THEORY></metadata><data><meanElements><EPOCH>2025-05-19T17:56:44.406816</EPOCH><MEAN_MOTION>12.62266178</MEAN_MOTION><ECCENTRICITY>.0000395</ECCENTRICITY><INCLINATION>51.9980</INCLINATION><RA_OF_ASC_NODE>135.0530</RA_OF_ASC_NODE><ARG_OF_PERICENTER>358.0400</ARG_OF_PERICENTER><MEAN_ANOMALY>173.1233</MEAN_ANOMALY></meanElements><tleParameters><EPHEMERIS_TYPE>0</EPHEMERIS_TYPE><CLASSIFICATION_TYPE>U</CLASSIFICATION_TYPE><NORAD_CAT_ID>38040</NORAD_CAT_ID><ELEMENT_SET_NO>999</ELEMENT_SET_NO><REV_AT_EPOCH>61935</REV_AT_EPOCH><BSTAR>.48621E-4</BSTAR><MEAN_MOTION_DOT>-.95E-6</MEAN_MOTION_DOT><MEAN_MOTION_DDOT>0</MEAN_MOTION_DDOT></tleParameters></data></segment></body></omm>
<omm id="CCSDS_OMM_VERS" version="2.0">
<header><CREATION_DATE/><ORIGINATOR/></header><body><segment><metadata><OBJECT_NAME>GLOBALSTAR M080</OBJECT_NAME><OBJECT_ID>2011-080B</OBJECT_ID><CENTER_NAME>EARTH</CENTER_NAME><REF_FRAME>TEME</REF_FRAME><TIME_SYSTEM>UTC</TIME_SYSTEM><MEAN_ELEMENT_THEORY>SGP4</MEAN_ELEMENT_THEORY></metadata><data><meanElements><EPOCH>2025-05-19T17:15:25.301376</EPOCH><MEAN_MOTION>12.62263031</MEAN_MOTION><ECCENTRICITY>.0000582</ECCENTRICITY><INCLINATION>52.0030</INCLINATION><RA_OF_ASC_NODE>136.7219</RA_OF_ASC_NODE><ARG_OF_PERICENTER>89.8238</ARG_OF_PERICENTER><MEAN_ANOMALY>80.9102</MEAN_ANOMALY></meanElements><tleParameters><EPHEMERIS_TYPE>0</EPHEMERIS_TYPE><CLASSIFICATION_TYPE>U</CLASSIFICATION_TYPE><NORAD_CAT_ID>38041</NORAD_CAT_ID><ELEMENT_SET_NO>999</ELEMENT_SET_NO><REV_AT_EPOCH>61933</REV_AT_EPOCH><BSTAR>.51926E-4</BSTAR><MEAN_MOTION_DOT>-.94E-6</MEAN_MOTION_DOT><MEAN_MOTION_DDOT>0</MEAN_MOTION_DDOT></tleParameters></data></segment></body></omm>
<omm id="CCSDS_OMM_VERS" version="2.0">
<header><CREATION_DATE/><ORIGINATOR/></header><body><segment><metadata><OBJECT_NAME>GLOBALSTAR M082</OBJECT_NAME><OBJECT_ID>2011-080C</OBJECT_ID><CENTER_NAME>EARTH</CENTER_NAME><REF_FRAME>TEME</REF_FRAME><TIME_SYSTEM>UTC</TIME_SYSTEM><MEAN_ELEMENT_THEORY>SGP4</MEAN_ELEMENT_THEORY></metadata><data><meanElements><EPOCH>2025-05-19T13:49:32.841120</EPOCH><MEAN_MOTION>12.62266165</MEAN_MOTION><ECCENTRICITY>.0000687</ECCENTRICITY><INCLINATION>52.0067</INCLINATION><RA_OF_ASC_NODE>92.6135</RA_OF_ASC_NODE><ARG_OF_PERICENTER>86.9395</ARG_OF_PERICENTER><MEAN_ANOMALY>84.1006</MEAN_ANOMALY></meanElements><tleParameters><EPHEMERIS_TYPE>0</EPHEMERIS_TYPE><CLASSIFICATION_TYPE>U</CLASSIFICATION_TYPE><NORAD_CAT_ID>38042</NORAD_CAT_ID><ELEMENT_SET_NO>999</ELEMENT_SET_NO><REV_AT_EPOCH>61988</REV_AT_EPOCH><BSTAR>.29823E-4</BSTAR><MEAN_MOTION_DOT>-.98E-6</MEAN_MOTION_DOT><MEAN_MOTION_DDOT>0</MEAN_MOTION_DDOT></tleParameters></data></segment></body></omm>
<omm id="CCSDS_OMM_VERS" version="2.0">
<header><CREATION_DATE/><ORIGINATOR/></header><body><segment><metadata><OBJECT_NAME>GLOBALSTAR M092</OBJECT_NAME><OBJECT_ID>2011-080D</OBJECT_ID><CENTER_NAME>EARTH</CENTER_NAME><REF_FRAME>TEME</REF_FRAME><TIME_SYSTEM>UTC</TIME_SYSTEM><MEAN_ELEMENT_THEORY>SGP4</MEAN_ELEMENT_THEORY></metadata><data><meanElements><EPOCH>2025-05-19T20:47:33.886752</EPOCH><MEAN_MOTION>12.62264430</MEAN_MOTION><ECCENTRICITY>.0000194</ECCENTRICITY><INCLINATION>52.0061</INCLINATION><RA_OF_ASC_NODE>182.1077</RA_OF_ASC_NODE><ARG_OF_PERICENTER>115.9343</ARG_OF_PERICENTER><MEAN_ANOMALY>55.0498</MEAN_ANOMALY></meanElements><tleParameters><EPHEMERIS_TYPE>0</EPHEMERIS_TYPE><CLASSIFICATION_TYPE>U</CLASSIFICATION_TYPE><NORAD_CAT_ID>38043</NORAD_CAT_ID><ELEMENT_SET_NO>999</ELEMENT_SET_NO><REV_AT_EPOCH>61858</REV_AT_EPOCH><BSTAR>-.15989E-4</BSTAR><MEAN_MOTION_DOT>-.107E-5</MEAN_MOTION_DOT><MEAN_MOTION_DDOT>0</MEAN_MOTION_DDOT></tleParameters></data></segment></body></omm>
<omm id="CCSDS_OMM_VERS" version="2.0">
<header><CREATION_DATE/><ORIGINATOR/></header><body><segment><metadata><OBJECT_NAME>GLOBALSTAR M090</OBJECT_NAME><OBJECT_ID>2011-080E</OBJECT_ID><CENTER_NAME>EARTH</CENTER_NAME><REF_FRAME>TEME</REF_FRAME><TIME_SYSTEM>UTC</TIME_SYSTEM><MEAN_ELEMENT_THEORY>SGP4</MEAN_ELEMENT_THEORY></metadata><data><meanElements><EPOCH>2025-05-19T14:27:41.109696</EPOCH><MEAN_MOTION>12.62270171</MEAN_MOTION><ECCENTRICITY>.0000464</ECCENTRICITY><INCLINATION>51.9879</INCLINATION><RA_OF_ASC_NODE>86.3768</RA_OF_ASC_NODE><ARG_OF_PERICENTER>74.9192</ARG_OF_PERICENTER><MEAN_ANOMALY>96.9126</MEAN_ANOMALY></meanElements><tleParameters><EPHEMERIS_TYPE>0</EPHEMERIS_TYPE><CLASSIFICATION_TYPE>U</CLASSIFICATION_TYPE><NORAD_CAT_ID>38044</NORAD_CAT_ID><ELEMENT_SET_NO>999</ELEMENT_SET_NO><REV_AT_EPOCH>62000</REV_AT_EPOCH><BSTAR>.16356E-4</BSTAR><MEAN_MOTION_DOT>-.101E-5</MEAN_MOTION_DOT><MEAN_MOTION_DDOT>0</MEAN_MOTION_DDOT></tleParameters></data></segment></body></omm>
<omm id="CCSDS_OMM_VERS" version="2.0">
<header><CREATION_DATE/><ORIGINATOR/></header><body><segment><metadata><OBJECT_NAME>GLOBALSTAR M086</OBJECT_NAME><OBJECT_ID>2011-080F</OBJECT_ID><CENTER_NAME>EARTH</CENTER_NAME><REF_FRAME>TEME</REF_FRAME><TIME_SYSTEM>UTC</TIME_SYSTEM><MEAN_ELEMENT_THEORY>SGP4</MEAN_ELEMENT_THEORY></metadata><data><meanElements><EPOCH>2025-05-19T15:05:20.429952</EPOCH><MEAN_MOTION>12.62271022</MEAN_MOTION><ECCENTRICITY>.0000556</ECCENTRICITY><INCLINATION>51.9892</INCLINATION><RA_OF_ASC_NODE>86.8458</RA_OF_ASC_NODE><ARG_OF_PERICENTER>273.2714</ARG_OF_PERICENTER><MEAN_ANOMALY>257.8939</MEAN_ANOMALY></meanElements><tleParameters><EPHEMERIS_TYPE>0</EPHEMERIS_TYPE><CLASSIFICATION_TYPE>U</CLASSIFICATION_TYPE><NORAD_CAT_ID>38045</NORAD_CAT_ID><ELEMENT_SET_NO>999</ELEMENT_SET_NO><REV_AT_EPOCH>61995</REV_AT_EPOCH><BSTAR>.10593E-3</BSTAR><MEAN_MOTION_DOT>-.85E-6</MEAN_MOTION_DOT><MEAN_MOTION_DDOT>0</MEAN_MOTION_DDOT></tleParameters></data></segment></body></omm>
<omm id="CCSDS_OMM_VERS" version="2.0">
<header><CREATION_DATE/><ORIGINATOR/></header><body><segment><metadata><OBJECT_NAME>GLOBALSTAR M097</OBJECT_NAME><OBJECT_ID>2013-005A</OBJECT_ID><CENTER_NAME>EARTH</CENTER_NAME><REF_FRAME>TEME</REF_FRAME><TIME_SYSTEM>UTC</TIME_SYSTEM><MEAN_ELEMENT_THEORY>SGP4</MEAN_ELEMENT_THEORY></metadata><data><meanElements><EPOCH>2025-05-19T07:13:16.871808</EPOCH><MEAN_MOTION>12.62272032</MEAN_MOTION><ECCENTRICITY>.0000673</ECCENTRICITY><INCLINATION>52.0068</INCLINATION><RA_OF_ASC_NODE>2.3640</RA_OF_ASC_NODE><ARG_OF_PERICENTER>100.0588</ARG_OF_PERICENTER><MEAN_ANOMALY>260.0354</MEAN_ANOMALY></meanElements><tleParameters><EPHEMERIS_TYPE>0</EPHEMERIS_TYPE><CLASSIFICATION_TYPE>U</CLASSIFICATION_TYPE><NORAD_CAT_ID>39072</NORAD_CAT_ID><ELEMENT_SET_NO>999</ELEMENT_SET_NO><REV_AT_EPOCH>56716</REV_AT_EPOCH><BSTAR>.5327E-4</BSTAR><MEAN_MOTION_DOT>-.94E-6</MEAN_MOTION_DOT><MEAN_MOTION_DDOT>0</MEAN_MOTION_DDOT></tleParameters></data></segment></body></omm>
<omm id="CCSDS_OMM_VERS" version="2.0">
<header><CREATION_DATE/><ORIGINATOR/></header><body><segment><metadata><OBJECT_NAME>GLOBALSTAR M093</OBJECT_NAME><OBJECT_ID>2013-005B</OBJECT_ID><CENTER_NAME>EARTH</CENTER_NAME><REF_FRAME>TEME</REF_FRAME><TIME_SYSTEM>UTC</TIME_SYSTEM><MEAN_ELEMENT_THEORY>SGP4</MEAN_ELEMENT_THEORY></metadata><data><meanElements><EPOCH>2025-05-19T17:59:16.461312</EPOCH><MEAN_MOTION>12.62264641</MEAN_MOTION><ECCENTRICITY>.0000759</ECCENTRICITY><INCLINATION>51.9831</INCLINATION><RA_OF_ASC_NODE>354.3462</RA_OF_ASC_NODE><ARG_OF_PERICENTER>102.3652</ARG_OF_PERICENTER><MEAN_ANOMALY>257.7300</MEAN_ANOMALY></meanElements><tleParameters><EPHEMERIS_TYPE>0</EPHEMERIS_TYPE><CLASSIFICATION_TYPE>U</CLASSIFICATION_TYPE><NORAD_CAT_ID>39073</NORAD_CAT_ID><ELEMENT_SET_NO>999</ELEMENT_SET_NO><REV_AT_EPOCH>56729</REV_AT_EPOCH><BSTAR>.57367E-4</BSTAR><MEAN_MOTION_DOT>-.93E-6</MEAN_MOTION_DOT><MEAN_MOTION_DDOT>0</MEAN_MOTION_DDOT></tleParameters></data></segment></body></omm>

</ndm>
